start=new Date('2021-10-13T00:00:00.000Z').valueOf();
sats=[{"FILE":"3158851","PERIOD":"95.592","RCS_SIZE":"LARGE","MEAN_MOTION_DDOT":"0.0000000000000","ECCENTRICITY":"0.00015960","APOAPSIS":"548.292","MEAN_MOTION":"15.06408784","SEMIMAJOR_AXIS":"6925.322","COUNTRY_CODE":"US","REF_FRAME":"TEME","GP_ID":"186980724","PERIAPSIS":"546.081","TLE_LINE2":"2 44751  53.0549 251.3480 0001596  66.4424 293.6732 15.06408784105628","CLASSIFICATION_TYPE":"U","ELEMENT_SET_NO":"999","OBJECT_NAME":"STARLINK-1046","DECAY_DATE":null,"LAUNCH_DATE":"2019-11-11","NORAD_CAT_ID":"44751","OBJECT_TYPE":"PAYLOAD","SITE":"AFETR","REV_AT_EPOCH":"10562","MEAN_ANOMALY":"293.6732","CENTER_NAME":"EARTH","OBJECT_ID":"2019-074AQ","INCLINATION":"53.0549","ARG_OF_PERICENTER":"66.4424","EPOCH":"2021-10-12T07:47:01.541760","BSTAR":"0.00016532000000","TIME_SYSTEM":"UTC","MEAN_ELEMENT_THEORY":"SGP4","RA_OF_ASC_NODE":"251.3480","TLE_LINE1":"1 44751U 19074AQ  21285.32432340  .00002182  00000-0  16532-3 0  9994","MEAN_MOTION_DOT":"0.00002182","EPHEMERIS_TYPE":"0"},{"PERIOD":"95.592","RCS_SIZE":"LARGE","MEAN_MOTION_DDOT":"0.0000000000000","ECCENTRICITY":"0.00016050","FILE":"3158851","SEMIMAJOR_AXIS":"6925.346","MEAN_MOTION":"15.06400815","APOAPSIS":"548.323","GP_ID":"186980975","REF_FRAME":"TEME","TLE_LINE2":"2 44752  53.0539 231.5434 0001605  69.9574 290.1588 15.06400815105899","PERIAPSIS":"546.100","CLASSIFICATION_TYPE":"U","COUNTRY_CODE":"US","OBJECT_NAME":"STARLINK-1047","DECAY_DATE":null,"LAUNCH_DATE":"2019-11-11","ELEMENT_SET_NO":"999","NORAD_CAT_ID":"44752","OBJECT_TYPE":"PAYLOAD","SITE":"AFETR","MEAN_ANOMALY":"290.1588","REV_AT_EPOCH":"10589","ARG_OF_PERICENTER":"69.9574","CENTER_NAME":"EARTH","OBJECT_ID":"2019-074AR","INCLINATION":"53.0539","MEAN_ELEMENT_THEORY":"SGP4","RA_OF_ASC_NODE":"231.5434","TLE_LINE1":"1 44752U 19074AR  21285.27825327  .00000467  00000-0  50239-4 0  9997","MEAN_MOTION_DOT":"0.00000467","EPHEMERIS_TYPE":"0","BSTAR":"0.00005023900000","EPOCH":"2021-10-12T06:40:41.082528","TIME_SYSTEM":"UTC"},{"SITE":"AFETR","MEAN_ANOMALY":"286.0381","REV_AT_EPOCH":"10616","NORAD_CAT_ID":"44753","OBJECT_TYPE":"PAYLOAD","EPOCH":"2021-10-12T05:13:06.223296","BSTAR":"-0.00004589800000","TIME_SYSTEM":"UTC","RA_OF_ASC_NODE":"211.8333","MEAN_ELEMENT_THEORY":"SGP4","EPHEMERIS_TYPE":"0","MEAN_MOTION_DOT":"-0.00000965","TLE_LINE1":"1 44753U 19074AS  21285.21743314 -.00000965  00000-0 -45898-4 0  9997","CENTER_NAME":"EARTH","INCLINATION":"53.0547","OBJECT_ID":"2019-074AS","ARG_OF_PERICENTER":"74.0784","APOAPSIS":"548.333","SEMIMAJOR_AXIS":"6925.360","MEAN_MOTION":"15.06396180","FILE":"3158851","RCS_SIZE":"LARGE","PERIOD":"95.592","ECCENTRICITY":"0.00015990","MEAN_MOTION_DDOT":"0.0000000000000","ELEMENT_SET_NO":"999","OBJECT_NAME":"STARLINK-1048","LAUNCH_DATE":"2019-11-11","DECAY_DATE":null,"COUNTRY_CODE":"US","REF_FRAME":"TEME","GP_ID":"186979723","PERIAPSIS":"546.118","TLE_LINE2":"2 44753  53.0547 211.8333 0001599  74.0784 286.0381 15.06396180106165","CLASSIFICATION_TYPE":"U"},{"SITE":"AFETR","MEAN_ANOMALY":"295.7239","REV_AT_EPOCH":"10637","NORAD_CAT_ID":"44754","OBJECT_TYPE":"PAYLOAD","RA_OF_ASC_NODE":"210.6165","MEAN_ELEMENT_THEORY":"SGP4","EPHEMERIS_TYPE":"0","MEAN_MOTION_DOT":"-0.00003236","TLE_LINE1":"1 44754U 19074AT  21285.48649804 -.00003236  00000-0 -19835-3 0  9991","BSTAR":"-0.00019835000000","EPOCH":"2021-10-12T11:40:33.430656","TIME_SYSTEM":"UTC","ARG_OF_PERICENTER":"64.3927","CENTER_NAME":"EARTH","INCLINATION":"53.0550","OBJECT_ID":"2019-074AT","SEMIMAJOR_AXIS":"6925.285","MEAN_MOTION":"15.06420636","APOAPSIS":"548.339","RCS_SIZE":"LARGE","PERIOD":"95.591","MEAN_MOTION_DDOT":"0.0000000000000","ECCENTRICITY":"0.00017160","FILE":"3159049","OBJECT_NAME":"STARLINK-1049","LAUNCH_DATE":"2019-11-11","DECAY_DATE":null,"ELEMENT_SET_NO":"999","GP_ID":"186986996","REF_FRAME":"TEME","TLE_LINE2":"2 44754  53.0550 210.6165 0001716  64.3927 295.7239 15.06420636106378","PERIAPSIS":"545.962","CLASSIFICATION_TYPE":"U","COUNTRY_CODE":"US"},{"SEMIMAJOR_AXIS":"6925.348","MEAN_MOTION":"15.06400119","APOAPSIS":"548.353","ECCENTRICITY":"0.00016460","MEAN_MOTION_DDOT":"0.0000000000000","RCS_SIZE":"LARGE","PERIOD":"95.592","FILE":"3158851","LAUNCH_DATE":"2019-11-11","DECAY_DATE":null,"OBJECT_NAME":"STARLINK-1050","ELEMENT_SET_NO":"999","CLASSIFICATION_TYPE":"U","TLE_LINE2":"2 44755  53.0541 251.3134 0001646  70.3576 289.7591 15.06400119106172","PERIAPSIS":"546.073","REF_FRAME":"TEME","GP_ID":"186980225","COUNTRY_CODE":"US","REV_AT_EPOCH":"10617","MEAN_ANOMALY":"289.7591","SITE":"AFETR","OBJECT_TYPE":"PAYLOAD","NORAD_CAT_ID":"44755","EPHEMERIS_TYPE":"0","MEAN_MOTION_DOT":"0.00000590","TLE_LINE1":"1 44755U 19074AU  21285.33812737  .00000590  00000-0  58538-4 0  9995","RA_OF_ASC_NODE":"251.3134","MEAN_ELEMENT_THEORY":"SGP4","TIME_SYSTEM":"UTC","BSTAR":"0.00005853800000","EPOCH":"2021-10-12T08:06:54.204768","ARG_OF_PERICENTER":"70.3576","INCLINATION":"53.0541","OBJECT_ID":"2019-074AU","CENTER_NAME":"EARTH"},{"COUNTRY_CODE":"US","REF_FRAME":"TEME","GP_ID":"186980476","CLASSIFICATION_TYPE":"U","TLE_LINE2":"2 44756  53.0509 152.0715 0002899  24.4388 335.6765 15.69071204107017","PERIAPSIS":"359.604","ELEMENT_SET_NO":"999","OBJECT_NAME":"STARLINK-1051","LAUNCH_DATE":"2019-11-11","DECAY_DATE":null,"FILE":"3158851","RCS_SIZE":"LARGE","PERIOD":"91.774","ECCENTRICITY":"0.00028990","MEAN_MOTION_DDOT":"0.0000000000000","APOAPSIS":"363.511","SEMIMAJOR_AXIS":"6739.692","MEAN_MOTION":"15.69071204","CENTER_NAME":"EARTH","INCLINATION":"53.0509","OBJECT_ID":"2019-074AV","ARG_OF_PERICENTER":"24.4388","BSTAR":"0.00018032000000","EPOCH":"2021-10-12T08:50:27.299328","TIME_SYSTEM":"UTC","RA_OF_ASC_NODE":"152.0715","MEAN_ELEMENT_THEORY":"SGP4","EPHEMERIS_TYPE":"0","TLE_LINE1":"1 44756U 19074AV  21285.36837152  .00020749  00000-0  18032-3 0  9999","MEAN_MOTION_DOT":"0.00020749","NORAD_CAT_ID":"44756","OBJECT_TYPE":"PAYLOAD","SITE":"AFETR","REV_AT_EPOCH":"10701","MEAN_ANOMALY":"335.6765"},{"COUNTRY_CODE":"US","PERIAPSIS":"546.100","TLE_LINE2":"2 44757  53.0538 231.7818 0001605  69.3682 290.7479 15.06400653105889","CLASSIFICATION_TYPE":"U","REF_FRAME":"TEME","GP_ID":"186979224","ELEMENT_SET_NO":"999","DECAY_DATE":null,"LAUNCH_DATE":"2019-11-11","OBJECT_NAME":"STARLINK-1052","FILE":"3158851","ECCENTRICITY":"0.00016050","MEAN_MOTION_DDOT":"0.0000000000000","PERIOD":"95.592","RCS_SIZE":"LARGE","APOAPSIS":"548.323","MEAN_MOTION":"15.06400653","SEMIMAJOR_AXIS":"6925.347","OBJECT_ID":"2019-074AW","INCLINATION":"53.0538","CENTER_NAME":"EARTH","ARG_OF_PERICENTER":"69.3682","TIME_SYSTEM":"UTC","BSTAR":"0.00002434900000","EPOCH":"2021-10-12T05:21:03.797568","MEAN_MOTION_DOT":"0.00000081","TLE_LINE1":"1 44757U 19074AW  21285.22296062  .00000081  00000-0  24349-4 0  9990","EPHEMERIS_TYPE":"0","MEAN_ELEMENT_THEORY":"SGP4","RA_OF_ASC_NODE":"231.7818","OBJECT_TYPE":"PAYLOAD","NORAD_CAT_ID":"44757","REV_AT_EPOCH":"10588","MEAN_ANOMALY":"290.7479","SITE":"AFETR"},{"NORAD_CAT_ID":"44758","OBJECT_TYPE":"PAYLOAD","SITE":"AFETR","REV_AT_EPOCH":"10567","MEAN_ANOMALY":"282.1775","CENTER_NAME":"EARTH","INCLINATION":"53.0534","OBJECT_ID":"2019-074AX","ARG_OF_PERICENTER":"77.9359","BSTAR":"0.00003884100000","EPOCH":"2021-10-12T15:06:11.942496","TIME_SYSTEM":"UTC","RA_OF_ASC_NODE":"249.9638","MEAN_ELEMENT_THEORY":"SGP4","EPHEMERIS_TYPE":"0","TLE_LINE1":"1 44758U 19074AX  21285.62930489  .00000297  00000-0  38841-4 0  9994","MEAN_MOTION_DOT":"0.00000297","FILE":"3159338","RCS_SIZE":"LARGE","PERIOD":"95.592","ECCENTRICITY":"0.00012940","MEAN_MOTION_DDOT":"0.0000000000000","APOAPSIS":"548.087","SEMIMAJOR_AXIS":"6925.326","MEAN_MOTION":"15.06407255","COUNTRY_CODE":"US","GP_ID":"187013587","REF_FRAME":"TEME","TLE_LINE2":"2 44758  53.0534 249.9638 0001294  77.9359 282.1775 15.06407255105673","CLASSIFICATION_TYPE":"U","PERIAPSIS":"546.295","ELEMENT_SET_NO":"999","OBJECT_NAME":"STARLINK-1053","LAUNCH_DATE":"2019-11-11","DECAY_DATE":null},{"ARG_OF_PERICENTER":"69.8038","INCLINATION":"53.0545","OBJECT_ID":"2019-074AY","CENTER_NAME":"EARTH","EPHEMERIS_TYPE":"0","TLE_LINE1":"1 44759U 19074AY  21285.61920241  .00000457  00000-0  49591-4 0  9991","MEAN_MOTION_DOT":"0.00000457","RA_OF_ASC_NODE":"250.0263","MEAN_ELEMENT_THEORY":"SGP4","TIME_SYSTEM":"UTC","BSTAR":"0.00004959100000","EPOCH":"2021-10-12T14:51:39.088224","OBJECT_TYPE":"PAYLOAD","NORAD_CAT_ID":"44759","REV_AT_EPOCH":"10331","MEAN_ANOMALY":"290.3108","SITE":"AFETR","TLE_LINE2":"2 44759  53.0545 250.0263 0001465  69.8038 290.3108 15.06403330103317","PERIAPSIS":"546.189","CLASSIFICATION_TYPE":"U","REF_FRAME":"TEME","GP_ID":"187012335","COUNTRY_CODE":"US","LAUNCH_DATE":"2019-11-11","DECAY_DATE":null,"OBJECT_NAME":"STARLINK-1054","ELEMENT_SET_NO":"999","MEAN_MOTION_DDOT":"0.0000000000000","ECCENTRICITY":"0.00014650","RCS_SIZE":"LARGE","PERIOD":"95.592","FILE":"3159338","MEAN_MOTION":"15.06403330","SEMIMAJOR_AXIS":"6925.338","APOAPSIS":"548.218"},{"NORAD_CAT_ID":"44760","OBJECT_TYPE":"PAYLOAD","SITE":"AFETR","MEAN_ANOMALY":"290.0220","REV_AT_EPOCH":"10567","ARG_OF_PERICENTER":"70.0942","CENTER_NAME":"EARTH","OBJECT_ID":"2019-074AZ","INCLINATION":"53.0523","MEAN_ELEMENT_THEORY":"SGP4","RA_OF_ASC_NODE":"250.0922","MEAN_MOTION_DOT":"-0.00000036","TLE_LINE1":"1 44760U 19074AZ  21285.60446519 -.00000036  00000-0  16519-4 0  9991","EPHEMERIS_TYPE":"0","BSTAR":"0.00001651900000","EPOCH":"2021-10-12T14:30:25.792416","TIME_SYSTEM":"UTC","PERIOD":"95.593","RCS_SIZE":"LARGE","ECCENTRICITY":"0.00016080","MEAN_MOTION_DDOT":"0.0000000000000","FILE":"3159338","SEMIMAJOR_AXIS":"6925.371","MEAN_MOTION":"15.06392626","APOAPSIS":"548.350","GP_ID":"187013085","REF_FRAME":"TEME","TLE_LINE2":"2 44760  53.0523 250.0922 0001608  70.0942 290.0220 15.06392626105672","PERIAPSIS":"546.123","CLASSIFICATION_TYPE":"U","COUNTRY_CODE":"US","OBJECT_NAME":"STARLINK-1055","DECAY_DATE":null,"LAUNCH_DATE":"2019-11-11","ELEMENT_SET_NO":"999"}];
